[{"OBJECT_NAME":"KUIPER-00020","OBJECT_ID":"2025-088M","EPOCH":"2026-03-09T07:33:05.565600","MEAN_MOTION":14.79999577,"ECCENTRICITY":0.00065612,"INCLINATION":51.9003,"RA_OF_ASC_NODE":104.7471,"ARG_OF_PERICENTER":80.9967,"MEAN_ANOMALY":279.1738,"EPHEMERIS_TYPE":0,"CLASSIFICATION_TYPE":"U","NORAD_CAT_ID":63735,"ELEMENT_SET_NO":999,"REV_AT_EPOCH":4760,"BSTAR":0.00067043352,"MEAN_MOTION_DOT":4.902e-5,"MEAN_MOTION_DDOT":0},{"OBJECT_NAME":"SL-14 R\/B","OBJECT_ID":"1986-074B","EPOCH":"2026-03-09T21:36:30.309984","MEAN_MOTION":14.85367529,"ECCENTRICITY":0.00173438,"INCLINATION":82.5166,"RA_OF_ASC_NODE":202.2228,"ARG_OF_PERICENTER":185.2787,"MEAN_ANOMALY":295.3986,"EPHEMERIS_TYPE":0,"CLASSIFICATION_TYPE":"U","NORAD_CAT_ID":16987,"ELEMENT_SET_NO":999,"REV_AT_EPOCH":10999,"BSTAR":8.4650841e-5,"MEAN_MOTION_DOT":7.54e-6,"MEAN_MOTION_DDOT":0}]
